ONEWEB-0271             
1 48989U 21060Y   26163.23104810  .00000009  00000+0 -11154-4 0  9999
2 48989  87.9098 229.7573 0001780 100.0418 260.0914 13.16593963239019
ONEWEB-0272             
1 48990U 21060Z   26163.25319891  .00000072  00000+0  15498-3 0  9993
2 48990  87.9100 229.7647 0001874  90.0037 270.1309 13.16592535238963
ONEWEB-0273             
1 48991U 21060AA  26163.19938206 -.00000002  00000+0 -38143-4 0  9992
2 48991  87.9102 229.7742 0001924 100.6867 259.4480 13.16594655238939
ONEWEB-0274             
1 48992U 21060AB  26163.22470584  .00000014  00000+0  33117-5 0  9995
2 48992  87.9088 229.7724 0002004  89.2947 270.8413 13.16593884238974
ONEWEB-0275             
1 48993U 21060AC  26163.21363404  .00000005  00000+0 -21631-4 0  9995
2 48993  87.9100 229.7631 0001968  96.0350 264.1005 13.16594251238904
ONEWEB-0276             
1 48994U 21060AD  26163.17088052  .00000142  00000+0  33692-3 0  9994
2 48994  87.9098 229.7712 0001989  93.2608 266.8750 13.16594206238916
ONEWEB-0277             
1 48995U 21060AE  26163.18355378  .00000096  00000+0  21736-3 0  9998
2 48995  87.9094 229.7777 0001878 100.6700 259.4643 13.16593845238903
ONEWEB-0278             
1 48996U 21060AF  26163.17402757  .00000133  00000+0  31457-3 0  9995
2 48996  87.9101 229.7695 0002261 101.3301 258.8084 13.16596967239039
ONEWEB-0279             
1 48997U 21060AG  26163.18196653  .00000123  00000+0  28770-3 0  9995
2 48997  87.9100 229.7661 0001780  95.6523 264.4811 13.16594823238969
ONEWEB-0280             
1 48998U 21060AH  26163.19699805  .00000036  00000+0  60134-4 0  9998
2 48998  87.9099 229.7671 0002046 108.1656 251.9698 13.16593415238905
ONEWEB-0281             
1 48999U 21060AJ  26163.73452862 -.00000047  00000+0 -15555-3 0  9999
2 48999  87.9102 229.6556 0002107  98.6852 261.4517 13.16594994239046
ONEWEB-0282             
1 49000U 21060AK  26163.23260902 -.00000164  00000+0 -46363-3 0  9991
2 49000  87.9096 229.7641 0001944 101.8005 258.3344 13.16594938238953
ONEWEB-0283             
1 49001U 21060AL  26163.22154305 -.00000026  00000+0 -10095-3 0  9990
2 49001  87.9098 229.7656 0001899  96.9180 263.2167 13.16594520238965
ONEWEB-0284             
1 49002U 21060AM  26163.21521613 -.00000008  00000+0 -55242-4 0  9994
2 49002  87.9099 229.7601 0002203 106.3497 253.7877 13.16594388238946
ONEWEB-0285             
1 49075U 21075A   26163.25732337 -.00000145  00000+0 -43782-3 0  9998
2 49075  87.8946 351.6425 0001769  91.4018 268.7313 13.12444374234564
ONEWEB-0286             
1 49076U 21075B   26163.23939376 -.00000407  00000+0 -11662-2 0  9991
2 49076  87.8937 351.6632 0002008  87.0355 273.1003 13.12442504233914
ONEWEB-0287             
1 49077U 21075C   26163.83829052  .00000018  00000+0  13731-4 0  9994
2 49077  87.9135   6.7313 0002273  86.8852 273.2540 13.17648736233055
ONEWEB-0288             
1 49078U 21075D   26163.21582112  .00000306  00000+0  81429-3 0  9998
2 49078  87.8946 351.6440 0002020  92.6084 267.5275 13.12442431234534
ONEWEB-0289             
1 49079U 21075E   26163.80102921  .00000081  00000+0  17442-3 0  9994
2 49079  87.9141   6.7550 0001778 100.0757 260.0575 13.17649836233626
ONEWEB-0290             
1 49080U 21075F   26163.85010845  .00000065  00000+0  13387-3 0  9990
2 49080  87.9144   6.7172 0001705 103.9262 256.2060 13.17648405233047
ONEWEB-0291             
1 49081U 21075G   26163.83492066  .00000041  00000+0  71795-4 0  9990
2 49081  87.9139   6.7283 0002162  94.2341 265.9038 13.17648184233038
ONEWEB-0293             
1 49082U 21075H   26163.86022272  .00000087  00000+0  19082-3 0  9992
2 49082  87.9136   6.7264 0001853  92.2574 267.8770 13.17648016233068
ONEWEB-0294             
1 49083U 21075J   26163.07012181  .00000065  00000+0  14555-3 0  9990
2 49083  87.8947 351.6767 0001739 100.4799 259.6526 13.12442858233904
ONEWEB-0295             
1 49084U 21075K   26163.85938294  .00000071  00000+0  14884-3 0  9991
2 49084  87.9136   6.7306 0002153  90.6812 269.4566 13.17647834233022
ONEWEB-0296             
1 49085U 21075L   26163.81216529  .00000414  00000+0  11161-2 0  9993
2 49085  87.8951 351.5364 0002126  94.5008 265.6363 13.12443354234000
ONEWEB-0297             
1 49086U 21075M   26163.23275508 -.00000291  00000+0 -84324-3 0  9999
2 49086  87.8937 351.6629 0001914  89.7426 270.3922 13.12442722234534
ONEWEB-0298             
1 49087U 21075N   26163.86373830  .00000040  00000+0  69532-4 0  9991
2 49087  87.9136   6.7276 0001913  83.7028 276.4321 13.17647455233055
ONEWEB-0299             
1 49088U 21075P   26163.25780576  .00000044  00000+0  78889-4 0  9993
2 49088  87.9146   6.8277 0002012  86.2911 273.8450 13.17649788232952
ONEWEB-0300             
1 49089U 21075Q   26163.22513009  .00000025  00000+0  33735-4 0  9996
2 49089  87.8948 351.6432 0001897  78.0019 282.1322 13.12443375234552
ONEWEB-0301             
1 49090U 21075R   26163.81893799  .00000419  00000+0  11283-2 0  9999
2 49090  87.8946 351.5236 0001724  78.2036 281.9285 13.12444133233998
ONEWEB-0302             
1 49091U 21075S   26163.80538973  .00000290  00000+0  77152-3 0  9994
2 49091  87.8950 351.5382 0001888  99.5683 260.5659 13.12444076233973
ONEWEB-0304             
1 49092U 21075T   26163.83997899  .00000030  00000+0  43600-4 0  9998
2 49092  87.9134   6.7352 0002018  88.6157 271.5206 13.17648513233007
ONEWEB-0305             
1 49093U 21075U   26163.83323089  .00000007  00000+0 -15577-4 0  9990
2 49093  87.9143   6.7206 0002260  87.7487 272.3903 13.17648645233033
ONEWEB-0308             
1 49094U 21075V   26163.79860850  .00000037  00000+0  67368-4 0  9995
2 49094  87.8949 351.5317 0001803  89.6698 270.4637 13.12444335233980
ONEWEB-0309             
1 49095U 21075W   26163.83660090  .00000020  00000+0  17496-4 0  9994
2 49095  87.9134   6.7287 0001879 102.7576 257.3766 13.17647817233003
ONEWEB-0310             
1 49096U 21075X   26163.81385632  .00000505  00000+0  13685-2 0  9991
2 49096  87.8937 351.5506 0001794  90.0746 270.0588 13.12444278234616
ONEWEB-0311             
1 49097U 21075Y   26163.84336177  .00000044  00000+0  79166-4 0  9991
2 49097  87.9137   6.7270 0002281  83.2903 276.8488 13.17649375233058
ONEWEB-0312             
1 49098U 21075Z   26163.85856529  .00000081  00000+0  17442-3 0  9990
2 49098  87.9134   6.7348 0002145  92.6999 267.4378 13.17652409233034
ONEWEB-0313             
1 49099U 21075AA  26163.86346316  .00000008  00000+0 -13789-4 0  9991
2 49099  87.9132   6.7395 0001975  86.5691 273.5666 13.17647755233021
ONEWEB-0314             
1 49100U 21075AB  26163.82986340  .00000039  00000+0  66682-4 0  9990
2 49100  87.9144   6.7184 0002212  92.2566 267.8819 13.17648628232994
ONEWEB-0315             
1 49101U 21075AC  26163.78674631 -.00000358  00000+0 -10318-2 0  9992
2 49101  87.8948 351.5198 0002133  82.9441 277.1930 13.12443700234597
ONEWEB-0316             
1 49102U 21075AD  26163.22684557 -.00000066  00000+0 -20111-3 0  9999
2 49102  87.9158 336.4435 0001916  91.3118 268.8234 13.18686416236552
ONEWEB-0317             
1 49103U 21075AE  26163.02776590 -.00000151  00000+0 -45598-3 0  9998
2 49103  87.8950 351.6944 0001360 110.9746 249.1528 13.12444751234514
ONEWEB-0318             
1 49104U 21075AF  26163.22347399  .00000023  00000+0  26776-4 0  9996
2 49104  87.9166 336.4453 0002048  87.5879 272.5488 13.18685075236510
ONEWEB-0319             
1 49105U 21075AG  26163.84504203  .00000038  00000+0  64696-4 0  9993
2 49105  87.9135   6.7320 0002267  77.6830 282.4555 13.17648734233036
ONEWEB-0323             
1 49106U 21075AH  26163.23783921 -.00000402  00000+0 -11542-2 0  9990
2 49106  87.8948 351.6335 0002353  84.2963 275.8434 13.12442771233909
ONEWEB-0329             
1 49107U 21075AJ  26163.85348005  .00000070  00000+0  14639-3 0  9999
2 49107  87.9136   6.7311 0002001  89.3104 270.8256 13.17648341233010
ONEWEB-0330             
1 49108U 21075AK  26163.80131894  .00000046  00000+0  85267-4 0  9990
2 49108  87.9138   6.7615 0001993  93.2337 266.9023 13.17649149233049
ONEWEB-0292             
1 49186U 21083A   26163.82344615  .00000878  00000+0  23701-2 0  9990
2 49186  87.8942 321.1075 0001876  91.2377 268.8967 13.13464887230352
ONEWEB-0303             
1 49187U 21083B   26163.22010184  .00000085  00000+0  18168-3 0  9998
2 49187  87.9161 336.4450 0002011  89.5951 270.5412 13.18686624229323
ONEWEB-0306             
1 49188U 21083C   26163.20998193 -.00000023  00000+0 -90322-4 0  9999
2 49188  87.9168 336.4346 0001717  97.7253 262.4074 13.18686354229361
ONEWEB-0307             
1 49189U 21083D   26163.81751657  .00000217  00000+0  56046-3 0  9996
2 49189  87.8950 321.1055 0001937  94.3829 265.7521 13.13469405230359
ONEWEB-0320             
1 49190U 21083E   26163.83721985  .00000024  00000+0  28365-4 0  9991
2 49190  87.9158 336.3283 0001807  93.0077 267.1262 13.18685116229406
ONEWEB-0321             
1 49191U 21083F   26163.80715544 -.00000013  00000+0 -64426-4 0  9991
2 49191  87.9191 275.3077 0001767 106.6643 253.4684 13.20771832236253
ONEWEB-0322             
1 49192U 21083G   26163.81326205 -.00001623  00000+0 -44798-2 0  9991
2 49192  87.8949 321.1069 0001409  97.0244 263.1045 13.13481960230343
ONEWEB-0324             
1 49193U 21083H   26163.20322847 -.00000032  00000+0 -11455-3 0  9991
2 49193  87.9169 336.4413 0001940  97.5917 262.5436 13.18684317229344
ONEWEB-0325             
1 49194U 21083J   26163.20660693 -.00000008  00000+0 -51995-4 0  9993
2 49194  87.9157 336.4494 0001825  89.6921 270.4421 13.18684922229355
ONEWEB-0326             
1 49195U 21083K   26162.99429030 -.00000008  00000+0 -53667-4 0  9995
2 49195  87.9167 336.4890 0002033  85.8090 274.3274 13.18684853229312
ONEWEB-0327             
1 49196U 21083L   26162.99400919 -.00000021  00000+0 -85554-4 0  9996
2 49196  87.9159 336.4938 0002015  80.5628 279.5732 13.18684341229336
